BATSU-CS1 (IRAZU)       
1 43468U 98067NR  20019.22422176  .00098201  14672-4  32416-3 0  9996
2 43468  51.6326 305.5175 0003720 137.5170 222.6125 15.90381020196793
CUBERRT                 
1 43546U 98067NU  20019.32123619  .00007231  00000-0  66593-4 0  9997
2 43546  51.6367 328.9199 0002887 222.9133 137.1639 15.68881287 86648
TEMPEST-D               
1 43547U 98067NV  20019.52308819  .00003456  00000-0  47656-4 0  9991
2 43547  51.6384 347.5742 0004699 204.3800 155.6972 15.60304612 86095
RAINCUBE                
1 43548U 98067NW  20019.86947671  .00016235  00000-0  15255-3 0  9992
2 43548  51.6355 334.0621 0003577 219.2404 140.8334 15.67306955 86750
HALOSAT                 
1 43549U 98067NX  20019.31565651  .00014916  00000-0  14174-3 0  9990
2 43549  51.6372 337.1538 0003456 219.7103 140.3640 15.67105602 86221
ENDUROSAT ONE           
1 43551U 98067NZ  20019.41218210  .00020048  00000-0  16456-3 0  9998
2 43551  51.6351 331.0142 0003211 231.4668 128.6042 15.70450776 86720
EQUISAT                 
1 43552U 98067PA  20019.33470483  .00013985  00000-0  13134-3 0  9994
2 43552  51.6376 335.8207 0003981 230.1241 129.9406 15.67462651 86616
AEROCUBE 12A            
1 43556U 18046C   20019.49151935  .00000967  00000-0  46010-4 0  9998
2 43556  51.6429 105.8503 0008826 117.6363 242.5514 15.29321701 84427
AEROCUBE 12B            
1 43557U 18046D   20019.85482074  .00000758  00000-0  38989-4 0  9994
2 43557  51.6426 104.5188 0008915 118.9840 241.2034 15.29109460 84422
UITMSAT-1               
1 43589U 98067PD  20019.33903051  .00016901  00000-0  15132-3 0  9997
2 43589  51.6346 335.7296 0003102 239.6868 120.3822 15.68469603 82353
MAYA-1                  
1 43590U 98067PE  20019.07733861  .00016052  00000-0  14401-3 0  9995
2 43590  51.6351 336.9902 0003196 239.1534 120.9149 15.68464601 82245
BHUTAN-1                
1 43591U 98067PF  20019.25059062  .00016284  00000-0  14554-3 0  9996
2 43591  51.6361 335.9426 0003271 241.4560 118.6107 15.68545463 82273
SIRIUSSAT-1             
1 43595U 98067PG  20019.88645478  .00016035  00000-0  15162-3 0  9991
2 43595  51.6350 335.6508 0002264 181.1910 178.9081 15.67163563 81515
SIRIUSSAT-2             
1 43596U 98067PH  20019.30099000  .00014959  00000-0  14260-3 0  9994
2 43596  51.6360 339.3014 0002683 182.5597 177.5386 15.67025187 81412
TANUSHA-3               
1 43597U 98067PJ  20019.85256405  .00026188  00000-0  20789-3 0  9999
2 43597  51.6332 330.8602 0001813 188.7335 171.3632 15.71075301 81574
SURFSAT                 
1 43614U 18070B   20019.44678147  .00001978  00000-0  52190-4 0  9993
2 43614  93.0354  92.5405 0014956 187.2824 172.8215 15.38479311 75411
CP7 (DAVE)              
1 43615U 18070C   20019.20568154  .00001986  00000-0  52584-4 0  9990
2 43615  93.0357  92.4375 0015067 187.7218 172.3806 15.38367454 75376
ELFIN-B                 
1 43616U 18070D   20019.36151849  .00002442  00000-0  62485-4 0  9996
2 43616  93.0318  92.4123 0015640 190.0597 170.0347 15.39387376 75426
ELFIN-A                 
1 43617U 18070E   20019.79982502  .00002871  00000-0  73126-4 0  9992
2 43617  93.0374  92.9811 0015171 184.5849 175.5269 15.39518663 75490
CUBEBEL-1 (BSUSAT-1)    
1 43666U 18083E   20019.81454807  .00000713  00000-0  38392-4 0  9994
2 43666  97.5040  47.6601 0015521 154.9062 309.8005 15.17960016 67911
DEBRISSAT-2             
1 43680U 98067PR  20019.38279655  .00037636  00000-0  24979-3 0  9997
2 43680  51.6345 330.0043 0001070 165.7056 194.3974 15.75089914 90272
CICERO 10               
1 43690U 18088A   20019.46941288  .00000911  00000-0  40342-4 0  9999
2 43690  85.0390 177.1124 0016510 134.6629 225.5961 15.19981717 65972
IRVINE01                
1 43693U 18088D   20019.51099422  .00002157  00000-0  91686-4 0  9993
2 43693  85.0365 176.1993 0019818 120.1337 240.1872 15.22222238 66032
PROXIMA I               
1 43694U 18088E   20019.50074729  .00000873  00000-0  36524-4 0  9999
2 43694  85.0334 176.0000 0021374 112.5150 247.8357 15.21719437 66049
PROXIMA II              
1 43696U 18088G   20019.49926486  .00000896  00000-0  37514-4 0  9990
2 43696  85.0334 176.0031 0021415 112.4478 247.9035 15.21723547 66033
FACSAT-1                
1 43721U 18096C   20019.80454692  .00001093  00000-0  44210-4 0  9999
2 43721  97.4379  94.1071 0016234 293.1999  66.7529 15.26808426 63554
CENTAURI-2              
1 43722U 18096D   20019.41680125  .00001435  00000-0  56477-4 0  9997
2 43722  97.4387  93.8719 0016311 294.8968  65.0575 15.27201011 63493
INNOSAT-2               
1 43738U 18096V   20019.81673584  .00001842  00000-0  66547-4 0  9990
2 43738  97.4396  95.6485 0022430 302.2732  57.6335 15.29578435 63650
SIRION PATHFINDER-2     
1 43759U 18099B   20019.81103290  .00000495  00000-0  50185-4 0  9992
2 43759  97.7235  93.9000 0013314 327.9507  32.0903 14.95216825 61567
CORVUS-BC 4             
1 43767U 18099K   20019.83038465  .00000105  00000-0  14971-4 0  9995
2 43767  97.7220  93.4903 0011011 333.3821  26.6833 14.94659018 61553
MOVE-II                 
1 43780U 18099Y   20019.76527995  .00000277  00000-0  30376-4 0  9990
2 43780  97.7238  93.7578 0012864 340.4719  19.6008 14.95256948 61541
SPACEBEE-7              
1 43816U 18099BL  20019.26671287  .00000373  00000-0  38770-4 0  9992
2 43816  97.7247  93.5634 0012399 325.2079  34.8330 14.95567447 61046
SPACEBEE-5              
1 43817U 18099BM  20019.27303964  .00001002  00000-0  94412-4 0  9993
2 43817  97.7284  93.8085 0012000 324.8136  35.2292 14.96010796 61053
SPACEBEE-6              
1 43818U 18099BN  20019.44754712 -.00000034  00000-0  21800-5 0  9991
2 43818  97.7261  93.8172 0012416 324.6323  35.4073 14.95710507 61227
SHIELDS 1               
1 43850U 18104B   20019.16623631  .00000041  00000-0  00000-0 0  9999
2 43850  85.0272 274.6855 0012373 262.0553  97.9333 15.21253017 60627
STF-1                   
1 43852U 18104D   20019.68688382  .00000041  00000-0  00000+0 0  9991
2 43852  85.0329 274.7699 0012443 276.2169  83.7853 15.20974519 60689
ZACUBE-2                
1 43907U 18111AH  20019.79958664  .00000501  00000-0  23182-4 0  9997
2 43907  97.2784 283.9569 0020414 315.6845  44.2757 15.24420297 59219
LUME 1                  
1 43908U 18111AJ  20019.49859899  .00000863  00000-0  37557-4 0  9997
2 43908  97.2784 283.7496 0020295 316.7595  43.2049 15.24733198 59173
AOBA VELOX-IV           
1 43940U 19003J   20019.70598050  .00001215  00000-0  51899-4 0  9994
2 43940  97.2501  75.9917 0025191  36.3864  89.6282 15.24473342 55833
CATSAT-2                
1 44029U 98067PV  20019.44004173  .00010338  00000-0  12777-3 0  9996
2 44029  51.6393 353.8057 0003478 231.6035 128.4646 15.60766391 55062
DELPHINI                
1 44030U 98067PW  20019.39945692  .00010857  00000-0  13149-3 0  9992
2 44030  51.6368 353.4809 0003184 225.4502 134.6232 15.61238358 55036
UNITE                   
1 44031U 98067PX  20019.33919528  .00006456  00000-0  89067-4 0  9999
2 44031  51.6382 356.8574 0002470 218.7344 141.3472 15.58586202 54989
TECHEDSAT 8             
1 44032U 98067PY  20019.48635213  .00052991  00000-0  35724-3 0  9997
2 44032  51.6338 340.5100 0001256 146.2026 213.9053 15.74575083 55197
CATSAT-1                
1 44033U 98067PZ  20019.37584257  .00010478  00000-0  12945-3 0  9991
2 44033  51.6396 354.1304 0003350 230.1674 129.9025 15.60757896 54966
RAAVANA-1               
1 44329U 98067QE  20019.33608446  .00006212  00000-0  97815-4 0  9993
2 44329  51.6407   5.1124 0006677 155.1829 204.9484 15.55022184 33625
UGUISU                  
1 44330U 98067QF  20019.40638880  .00006085  00000-0  96146-4 0  9992
2 44330  51.6406   4.8301 0006660 153.9789 206.1538 15.54967939 33610
NEPALISAT-1             
1 44331U 98067QG  20019.39560204  .00006035  00000-0  95125-4 0  9996
2 44331  51.6406   4.7601 0006672 156.7316 203.3978 15.55054746 33625
SPOOQY-1                
1 44332U 98067QH  20019.39318334  .00006488  00000-0  10181-3 0  9992
2 44332  51.6408   4.7410 0005486 157.7519 202.3711 15.55031804 33583
SPACEBEE-9              
1 44370U 19037F   20019.85996389  .00003474  00000-0  90053-4 0  9996
2 44370  45.0189 230.7788 0013592  23.5261 336.6254 15.41172703 31500
SPACEBEE-8              
1 44371U 19037G   20019.85518401  .00007584  00000-0  17323-3 0  9996
2 44371  45.0226 229.0611 0012175  27.3923 332.7605 15.43436758 31515
IOD-1 GEMS              
1 44385U 98067QK  20019.52914900  .00009983  00000-0  14855-3 0  9991
2 44385  51.6417   4.1777 0003538 117.3998 242.7353 15.55806938 31126
MOVE-IIB                
1 44398U 19038N   20019.87020084  .00000871  00000-0  54285-4 0  9994
2 44398  97.5171 343.2271 0023896 284.0742  75.7832 15.11991846 29971
SONATE                  
1 44400U 19038Q   20019.87725813  .00000325  00000-0  22742-4 0  9997
2 44400  97.5195 343.2522 0023773 281.9949  77.8616 15.11806636 29974
LUCKY-7                 
1 44406U 19038W   20019.85103382  .00000540  00000-0  35100-4 0  9993
2 44406  97.5192 343.2823 0023190 282.0002  77.8629 15.12031677 29965
BEESAT 9                
1 44412U 19038AC  20019.85436946  .00000692  00000-0  43861-4 0  9996
2 44412  97.5186 343.2700 0021330 288.4296  71.4616 15.12047254 29669
JAISAT-1                
1 44419U 19038F   20019.52543171  .00000627  00000-0  39611-4 0  9992
2 44419  97.5189 343.0974 0020225 289.2450  70.6593 15.12529742 29935
SWIATOWID               
1 44426U 98067QL  20019.79725338  .00011673  00000-0  17116-3 0  9993
2 44426  51.6443   2.8214 0004529 107.6833 316.8972 15.56015039 31173
KRAKSAT                 
1 44427U 98067QM  20019.39022102  .00005065  00000-0  84643-4 0  9997
2 44427  51.6423   6.2425 0004309 111.0372 249.1080 15.53812498 31132
VCC A                   
1 44428U 98067QN  20019.33850599  .00005948  00000-0  95696-4 0  9991
2 44428  51.6420   5.9003 0003423 126.0936 234.0372 15.54512299 31130
